NORAD_CAT_ID,OBJECT_NAME,OBJECT_TYPE,EPOCH,MEAN_MOTION,ECCENTRICITY,INCLINATION,RA_OF_ASC_NODE,ARG_OF_PERICENTER,MEAN_ANOMALY,BSTAR,MEAN_MOTION_DOT,MEAN_MOTION_DDOT,TLE_LINE0,TLE_LINE1,TLE_LINE2,SEMIMAJOR_AXIS,PERIOD,APOGEE,PERIGEE,DECAYED
55923.0,STARLINK-5854,PAYLOAD,2024-07-04 21:01:54,14.98328704,0.0002682,70.0,49.5785,268.0319,92.0533,0.00011179,1.241e-05,0.0,0 STARLINK-5854,1 55923U 23037K   24186.87632905  .00001241  00000-0  11179-3 0  9990,2 55923  70.0000  49.5785 0002682 268.0319  92.0533 14.98328704 72038,6950.197,96.107,573.926,570.198,0.0
55923.0,STARLINK-5854,PAYLOAD,2024-07-04 22:38:02,14.98329902,0.0002668,70.0,49.4102,268.3954,91.6899,0.00012307,1.376e-05,0.0,0 STARLINK-5854,1 55923U 23037K   24186.94308814  .00001376  00000-0  12307-3 0  9990,2 55923  70.0000  49.4102 0002668 268.3954  91.6899 14.98329902 71706,6950.193,96.107,573.913,570.204,0.0
55923.0,STARLINK-5854,PAYLOAD,2024-07-05 08:14:51,14.98325427,0.0002722,69.9998,48.4001,261.7075,98.3776,0.00015227,1.724e-05,0.0,0 STARLINK-5854,1 55923U 23037K   24187.34365027  .00001724  00000-0  15227-3 0  9995,2 55923  69.9998  48.4001 0002722 261.7075  98.3776 14.98325427 71760,6950.207,96.107,573.964,570.18,0.0
55923.0,STARLINK-5854,PAYLOAD,2024-07-05 21:03:55,14.98335183,0.000296,70.0,47.0531,269.522,90.56,0.00011949,1.333e-05,0.0,0 STARLINK-5854,1 55923U 23037K   24187.87772436  .00001333  00000-0  11949-3 0  9992,2 55923  70.0000  47.0531 0002960 269.5220  90.5600 14.98335183 72189,6950.177,96.107,574.099,569.985,0.0
55923.0,STARLINK-5854,PAYLOAD,2024-07-05 22:40:03,14.98332329,0.0002726,70.0,46.8848,264.8877,95.1971,0.00011445,1.273e-05,0.0,0 STARLINK-5854,1 55923U 23037K   24187.94448629  .00001273  00000-0  11445-3 0  9998,2 55923  70.0000  46.8848 0002726 264.8877  95.1971 14.98332329 71857,6950.186,96.107,573.945,570.156,0.0
55923.0,STARLINK-5854,PAYLOAD,2024-07-06 14:41:24,14.98318739,0.0002928,69.9995,45.1997,267.9472,92.1352,0.0002345,2.705e-05,0.0,0 STARLINK-5854,1 55923U 23037K   24188.61209034  .00002705  00000-0  23450-3 0  9998,2 55923  69.9995  45.1997 0002928 267.9472  92.1352 14.98318739 71953,6950.228,96.108,574.128,570.058,0.0
55923.0,STARLINK-5854,PAYLOAD,2024-07-06 21:05:56,14.9833063,0.0002956,70.0001,44.5283,270.6596,89.4225,3.537e-05,3.29e-06,0.0,0 STARLINK-5854,1 55923U 23037K   24188.87912768  .00000329  00000-0  35370-4 0  9996,2 55923  70.0001  44.5283 0002956 270.6596  89.4225 14.98330630 72339,6950.191,96.107,574.11,570.001,0.0
55923.0,STARLINK-5854,PAYLOAD,2024-07-07 08:18:53,14.98329281,0.0002903,70.0,43.3499,270.9902,89.0924,3.6337e-05,3.41e-06,0.0,0 STARLINK-5854,1 55923U 23037K   24189.34644845  .00000341  00000-0  36337-4 0  9995,2 55923  70.0000  43.3499 0002903 270.9902  89.0924 14.98329281 72062,6950.195,96.107,574.078,570.042,0.0
55923.0,STARLINK-5854,PAYLOAD,2024-07-08 00:20:13,14.98337435,0.000298,69.9998,41.6662,271.7595,88.3223,7.6937e-05,8.25e-06,0.0,0 STARLINK-5854,1 55923U 23037K   24190.01404140  .00000825  00000-0  76937-4 0  9990,2 55923  69.9998  41.6662 0002980 271.7595  88.3223 14.98337435 72503,6950.17,96.107,574.106,569.964,0.0
55923.0,STARLINK-5854,PAYLOAD,2024-07-08 14:45:26,14.98328029,0.0002902,70.0,40.151,272.6016,87.4811,7.6988e-05,8.26e-06,0.0,0 STARLINK-5854,1 55923U 23037K   24190.61488682  .00000826  00000-0  76988-4 0  9996,2 55923  70.0000  40.1510 0002902 272.6016  87.4811 14.98328029 72252,6950.199,96.107,574.081,570.047,0.0
55923.0,STARLINK-5854,PAYLOAD,2024-07-08 21:09:58,14.98330312,0.0002898,70.0,39.4779,272.3215,87.7612,8.824e-05,9.6e-06,0.0,0 STARLINK-5854,1 55923U 23037K   24190.88192552  .00000960  00000-0  88240-4 0  9996,2 55923  70.0000  39.4779 0002898 272.3215  87.7612 14.98330312 72634,6950.192,96.107,574.071,570.043,0.0
55923.0,STARLINK-5854,PAYLOAD,2024-07-08 22:46:06,14.98331859,0.000289,70.0,39.3096,272.3736,87.7092,0.00010363,1.144e-05,0.0,0 STARLINK-5854,1 55923U 23037K   24190.94868414  .00001144  00000-0  10363-3 0  9995,2 55923  70.0000  39.3096 0002890 272.3736  87.7092 14.98331859 72308,6950.187,96.107,574.061,570.044,0.0
55923.0,STARLINK-5854,PAYLOAD,2024-07-09 14:47:26,14.98333238,0.0002778,70.0001,37.6263,272.7728,87.3113,1.9758e-05,1.43e-06,0.0,0 STARLINK-5854,1 55923U 23037K   24191.61628470  .00000143  00000-0  19758-4 0  9992,2 55923  70.0001  37.6263 0002778 272.7728  87.3113 14.98333238 72400,6950.183,96.107,573.979,570.117,0.0
55923.0,STARLINK-5854,PAYLOAD,2024-07-09 22:48:07,14.98332102,0.0002746,70.0002,36.7852,266.9383,93.1462,2.4544e-05,2e-06,0.0,0 STARLINK-5854,1 55923U 23037K   24191.95008427  .00000200  00000-0  24544-4 0  9996,2 55923  70.0002  36.7852 0002746 266.9383  93.1462 14.98332102 72458,6950.186,96.107,573.96,570.143,0.0
55923.0,STARLINK-5854,PAYLOAD,2024-07-10 13:13:19,14.9833087,0.000281,69.9999,35.2704,268.872,91.2117,3.7072e-05,3.49e-06,0.0,0 STARLINK-5854,1 55923U 23037K   24192.55092448  .00000349  00000-0  37072-4 0  9993,2 55923  69.9999  35.2704 0002810 268.8720  91.2117 14.98330870 72544,6950.19,96.107,574.008,570.102,0.0
55923.0,STARLINK-5854,PAYLOAD,2024-07-10 22:50:08,14.98330926,0.0002811,70.0,34.2605,268.7815,91.3022,3.3521e-05,3.07e-06,0.0,0 STARLINK-5854,1 55923U 23037K   24192.95148440  .00000307  00000-0  33521-4 0  9990,2 55923  70.0000  34.2605 0002811 268.7815  91.3022 14.98330926 72609,6950.19,96.107,574.009,570.101,0.0
55923.0,STARLINK-5854,PAYLOAD,2024-07-11 00:26:16,14.98332212,0.0002791,70.0,34.092,268.4943,91.5896,4.9354e-05,4.96e-06,0.0,0 STARLINK-5854,1 55923U 23037K   24193.01824320  .00000496  00000-0  49354-4 0  9996,2 55923  70.0000  34.0920 0002791 268.4943  91.5896 14.98332212 72952,6950.186,96.107,573.991,570.111,0.0
55923.0,STARLINK-5854,PAYLOAD,2024-07-11 14:51:28,14.98332194,0.0002823,70.0,32.577,268.3663,91.7173,6.7824e-05,7.16e-06,0.0,0 STARLINK-5854,1 55923U 23037K   24193.61908212  .00000716  00000-0  67824-4 0  9992,2 55923  70.0000  32.5770 0002823 268.3663  91.7173 14.98332194 72704,6950.186,96.107,574.013,570.089,0.0
55923.0,STARLINK-5854,PAYLOAD,2024-07-12 13:17:21,14.98330641,0.0002888,69.9998,30.2198,269.0351,91.0477,7.0224e-05,7.45e-06,0.0,0 STARLINK-5854,1 55923U 23037K   24194.55372249  .00000745  00000-0  70224-4 0  9991,2 55923  69.9998  30.2198 0002888 269.0351  91.0477 14.98330641 73187,6950.191,96.107,574.063,570.049,0.0
55923.0,STARLINK-5854,PAYLOAD,2024-07-12 14:53:29,14.98329768,0.0002904,69.9998,30.0514,269.1312,90.9515,5.9684e-05,6.19e-06,0.0,0 STARLINK-5854,1 55923U 23037K   24194.62048324  .00000619  00000-0  59684-4 0  9990,2 55923  69.9998  30.0514 0002904 269.1312  90.9515 14.98329768 72856,6950.194,96.107,574.077,570.04,0.0
55923.0,STARLINK-5854,PAYLOAD,2024-07-12 21:18:01,14.9833105,0.0002944,70.0001,29.3789,270.0331,90.0491,4.106e-05,3.97e-06,0.0,0 STARLINK-5854,1 55923U 23037K   24194.88752285  .00000397  00000-0  41060-4 0  9998,2 55923  70.0001  29.3789 0002944 270.0331  90.0491 14.98331050 72890,6950.19,96.107,574.101,570.009,0.0
55923.0,STARLINK-5854,PAYLOAD,2024-07-13 14:55:30,14.9833362,0.0003089,69.9997,27.5264,271.4841,88.5964,1.7474e-05,1.16e-06,0.0,0 STARLINK-5854,1 55923U 23037K   24195.62188149  .00000116  00000-0  17474-4 0  9994,2 55923  69.9997  27.5264 0003089 271.4841  88.5964 14.98333620 73007,6950.182,96.107,574.194,569.9,0.0
55923.0,STARLINK-5854,PAYLOAD,2024-07-13 19:43:54,14.98334765,0.0003086,69.9999,27.0214,271.3413,88.7392,2.8992e-05,2.53e-06,0.0,0 STARLINK-5854,1 55923U 23037K   24195.82215999  .00000253  00000-0  28992-4 0  9999,2 55923  69.9999  27.0214 0003086 271.3413  88.7392 14.98334765 73378,6950.178,96.107,574.188,569.898,0.0
55923.0,STARLINK-5854,PAYLOAD,2024-07-13 21:20:02,14.9833594,0.0003072,69.9999,26.853,271.3347,88.746,4.4519e-05,4.38e-06,0.0,0 STARLINK-5854,1 55923U 23037K   24195.88891907  .00000438  00000-0  44519-4 0  9992,2 55923  69.9999  26.8530 0003072 271.3347  88.7460 14.98335940 73043,6950.175,96.107,574.175,569.904,0.0
55923.0,STARLINK-5854,PAYLOAD,2024-07-14 14:57:31,14.98331013,0.0002999,70.0003,25.0012,272.0944,87.9872,6.6447e-05,7e-06,0.0,0 STARLINK-5854,1 55923U 23037K   24196.62328078  .00000700  00000-0  66447-4 0  9995,2 55923  70.0003  25.0012 0002999 272.0944  87.9872 14.98331013 73153,6950.19,96.107,574.139,569.97,0.0
55923.0,STARLINK-5854,PAYLOAD,2024-07-14 19:45:55,14.98333455,0.0002981,70.0003,24.4962,272.224,87.8578,9.1488e-05,9.99e-06,0.0,0 STARLINK-5854,1 55923U 23037K   24196.82355859  .00000999  00000-0  91488-4 0  9997,2 55923  70.0003  24.4962 0002981 272.2240  87.8578 14.98333455 73527,6950.182,96.107,574.119,569.975,0.0
55923.0,STARLINK-5854,PAYLOAD,2024-07-14 21:22:03,14.98334954,0.0002975,70.0003,24.3279,272.2675,87.8144,0.00010691,1.183e-05,0.0,0 STARLINK-5854,1 55923U 23037K   24196.89031716  .00001183  00000-0  10691-3 0  9999,2 55923  70.0003  24.3279 0002975 272.2675  87.8144 14.98334954 73199,6950.178,96.107,574.11,569.975,0.0
55923.0,STARLINK-5854,PAYLOAD,2024-07-15 13:23:24,14.98324193,0.0002789,70.001,22.6457,271.3196,88.7644,3.2877e-05,2.99e-06,0.0,0 STARLINK-5854,1 55923U 23037K   24197.55792606  .00000299  00000-0  32877-4 0  9993,2 55923  70.0010  22.6457 0002789 271.3196  88.7644 14.98324193 73635,6950.211,96.107,574.014,570.137,0.0
55923.0,STARLINK-5854,PAYLOAD,2024-07-15 14:59:32,14.98327702,0.000281,70.0014,22.4765,267.5086,92.5752,-1.6911e-05,-2.95e-06,0.0,0 STARLINK-5854,1 55923U 23037K   24197.62468492 -.00000295  00000-0 -16911-4 0  9993,2 55923  70.0014  22.4765 0002810 267.5086  92.5752 14.98327702 73305,6950.2,96.107,574.018,570.112,0.0
55923.0,STARLINK-5854,PAYLOAD,2024-07-15 19:47:58,14.98311887,0.0003028,70.0004,21.9718,268.798,91.2832,-0.00018933,-2.35e-05,0.0,0 STARLINK-5854,1 55923U 23037K   24197.82497952 -.00002350  00000-0 -18933-3 0  9997,2 55923  70.0004  21.9718 0003028 268.7980  91.2832 14.98311887 73676,6950.249,96.108,574.218,570.009,0.0
